LEMUR-2-DEMBITZ         
1 42842U 17042T   26068.47492167  .00020231  00000+0  76561-3 0  9991
2 42842  97.3807 250.9241 0006961  17.1421 343.0051 15.26947128473114
STARLINK-35689          
1 66494U 25263K   26067.83385995  .00035661  00000+0  12987-2 0  9997
2 66494  42.9976 355.9128 0000268 198.9212 161.1629 15.27592341 18766
